*******************************************************************************
 Revised: Jun 17, 2016             Mimas / (Saturn)                         601
                        http://ssd.jpl.nasa.gov/?sat_phys_par
                         http://ssd.jpl.nasa.gov/?sat_elem

 SATELLITE PHYSICAL PROPERTIES:
  Mean Radius (km)        = 198.8   +- 1.5   Density (g/cm^3)  = 1.152 +- 0.027
  Mass (10^19 kg)         =   3.75           Geometric Albedo  = 0.6 
  GM (km^3/s^2)           =   2.503          V(1,0)            = +3.3

 SATELLITE ORBITAL DATA (mean elements referred to local Laplace plane):
  Semi-major axis, a (km) = 185.54(10^3)    Orbital period     = 0.9424218 d
  Eccentricity, e         = 0.0196          Rotational period  = Synchronous
  Inclination, i  (deg)   = 1.572
*******************************************************************************
 
 
*******************************************************************************
Ephemeris / WWW_USER Fri Jul 21 10:16:52 2017 Pasadena, USA      / Horizons    
*******************************************************************************
Target body name: Mimas (601)                     {source: sat389}
Center body name: Sun (10)                        {source: sat389}
Center-site name: BODY CENTER
*******************************************************************************
Start time      : A.D. 2017-Jul-10 00:00:00.0000 TDB
Stop  time      : A.D. 2020-Aug-13 00:00:00.0000 TDB
Step-size       : 1440 minutes
*******************************************************************************
Center geodetic : 0.00000000,0.00000000,0.0000000 {E-lon(deg),Lat(deg),Alt(km)}
Center cylindric: 0.00000000,0.00000000,0.0000000 {E-lon(deg),Dxy(km),Dz(km)}
Center radii    : 696000.0 x 696000.0 x 696000.0 k{Equator, meridian, pole}    
Output units    : KM-S                                                         
Output type     : GEOMETRIC cartesian states
Output format   : 3 (position, velocity, LT, range, range-rate)
Reference frame : ICRF/J2000.0                                                 
Coordinate systm: Ecliptic and Mean Equinox of Reference Epoch                 
*******************************************************************************
            JDTDB,            Calendar Date (TDB),                      X,                      Y,                      Z,                     VX,                     VY,                     VZ,                     LT,                     RG,                     RR,
**************************************************************************************************************************************************************************************************************************************************************************
$$SOE
2458484.500000000, A.D. 2019-Jan-01 00:00:00.0000,  2.932205053085545E+08, -1.475956155141705E+09,  1.390394165957993E+07, -4.282907965790600E+00,  7.461295452294940E+00, -2.403502633265199E+00,  5.019688753764383E+03,  1.504864829885981E+09, -8.174687388626339E+00,
2458485.500000000, A.D. 2019-Jan-02 00:00:00.0000,  2.939246348728280E+08, -1.475779929654811E+09,  1.386706708604074E+07, -5.436128294555356E+00,  2.736498945923814E+00,  3.259709043568905E-01,  5.019569313567400E+03,  1.504829022615743E+09, -3.742459708696218E+00,
2458486.500000000, A.D. 2019-Jan-03 00:00:00.0000,  2.946282600845165E+08, -1.475627210928918E+09,  1.384359007254469E+07, -4.447618443089208E+00, -2.029578598538726E+00,  2.901874256537334E+00,  5.019528012089312E+03,  1.504816640744108E+09,  1.146106199431904E+00,
2458487.500000000, A.D. 2019-Jan-04 00:00:00.0000,  2.953416163022713E+08, -1.475496437953496E+09,  1.383179563755018E+07, -1.542623138305776E+00, -6.137606106827321E+00,  4.950988605727646E+00,  5.019566365453002E+03,  1.504828138793282E+09,  5.760721757052377E+00,
2458488.500000000, A.D. 2019-Jan-05 00:00:00.0000,  2.960731355294250E+08, -1.475382895487112E+09,  1.382834391678464E+07,  2.795609853272750E+00, -9.032941492340603E+00,  6.202282555088249E+00,  5.019674408917813E+03,  1.504860529409168E+09,  9.463016250776715E+00,
2458489.500000000, A.D. 2019-Jan-06 00:00:00.0000,  2.968284296029878E+08, -1.475279594301074E+09,  1.382884765283656E+07,  7.926572252043686E+00, -1.036111995394962E+01,  6.510091636177555E+00,  5.019832916173838E+03,  1.504908048689063E+09,  1.178039277334078E+01,
2458490.500000000, A.D. 2019-Jan-07 00:00:00.0000,  2.976097273210704E+08, -1.475178295105683E+09,  1.382849641447037E+07,  1.314630890883260E+01, -9.984450003612464E+00,  5.855991675400619E+00,  5.020016378133554E+03,  1.504963049200916E+09,  1.244036716606467E+01,
2458491.500000000, A.D. 2019-Jan-08 00:00:00.0000,  2.984157487064156E+08, -1.475070593085581E+09,  1.382267920050579E+07,  1.776725166978956E+01, -7.975113197964687E+00,  4.338478802372385E+00,  5.020196460342583E+03,  1.505017036489002E+09,  1.137917488628410E+01,
2458492.500000000, A.D. 2019-Jan-09 00:00:00.0000,  2.992419598429067E+08, -1.474948929720646E+09,  1.380753565132535E+07,  2.118284959159282E+01, -4.596996172046717E+00,  2.157427413705173E+00,  5.020345467319997E+03,  1.505061707657020E+09,  8.736466219139420E+00,
2458493.500000000, A.D. 2019-Jan-10 00:00:00.0000,  3.000810996684788E+08, -1.474807487266775E+09,  1.378041885891938E+07,  2.292233951972567E+01, -2.808320161300362E-01, -4.045730589636185E-01,  5.020439599645868E+03,  1.505089927818371E+09,  4.841676692672777E+00,
2458494.500000000, A.D. 2019-Jan-11 00:00:00.0000,  3.009240159066200E+08, -1.474642962784900E+09,  1.374026212354219E+07,  2.270661094279354E+01,  4.409528068478799E+00, -3.006182695449009E+00,  5.020462022432853E+03,  1.505096650000796E+09,  1.921333616170126E-01,
2458495.500000000, A.D. 2019-Jan-12 00:00:00.0000,  3.017607752418967E+08, -1.474455085819805E+09,  1.368777805055308E+07,  2.049894550389649E+01,  8.827504456144624E+00, -5.280308862593823E+00,  5.020405281072062E+03,  1.505079639368774E+09, -4.585974501792190E+00,
2458496.500000000, A.D. 2019-Jan-13 00:00:00.0000,  3.025819418111512E+08, -1.474246865834847E+09,  1.362548745090079E+07,  1.654397987028846E+01,  1.231722799926666E+01, -6.879243653977650E+00,  5.020272953363924E+03,  1.505039968519890E+09, -8.801399660077875E+00,
2458497.500000000, A.D. 2019-Jan-14 00:00:00.0000,  3.033800326915023E+08, -1.474024401859083E+09,  1.355748367164218E+07,  1.137417977783956E+01,  1.431380615333658E+01, -7.532032538344811E+00,  5.020079997407193E+03,  1.504982121779336E+09, -1.179436996090397E+01,
2458498.500000000, A.D. 2019-Jan-15 00:00:00.0000,  3.041508451360554E+08, -1.473796113648544E+09,  1.348888035005838E+07,  5.757622843138154E+00,  1.445644337593709E+01, -7.103849125843698E+00,  5.019851131500617E+03,  1.504913509506651E+09, -1.305755251559041E+01,
2458499.500000000, A.D. 2019-Jan-16 00:00:00.0000,  3.048943521424893E+08, -1.473571524531058E+09,  1.342504236842966E+07,  5.820532519983472E-01,  1.268035626911353E+01, -5.637694749371823E+00,  5.019617467657296E+03,  1.504843458848716E+09, -1.234921370159136E+01,
2458500.500000000, A.D. 2019-Jan-17 00:00:00.0000,  3.056148901107420E+08, -1.473359629611115E+09,  1.337064561162913E+07, -3.315235513738810E+00,  9.254602802167085E+00, -3.360510492967092E+00,  5.019411316824500E+03,  1.504781656383834E+09, -9.764523395511851E+00,
2458501.500000000, A.D. 2019-Jan-18 00:00:00.0000,  3.063204564120232E+08, -1.473167337073311E+09,  1.332885773162043E+07, -5.318121451381868E+00,  4.737457307523045E+00, -6.426378023771959E-01,  5.019260634871931E+03,  1.504736483070896E+09, -5.726373010322602E+00,
2458502.500000000, A.D. 2019-Jan-19 00:00:00.0000,  3.070213065227754E+08, -1.472998312066053E+09,  1.330080875282282E+07, -5.149213415477687E+00, -1.399803589968237E-01,  2.078627946711059E+00,  5.019184309039508E+03,  1.504713601161986E+09, -8.952401068429950E-01,
2458503.500000000, A.D. 2019-Jan-20 00:00:00.0000,  3.077281636621606E+08, -1.472852466946839E+09,  1.328546496888632E+07, -2.901111110710077E+00, -4.622199567222036E+00,  4.385856998745840E+00,  5.019189290351622E+03,  1.504715094521788E+09,  3.969743250325168E+00,
2458504.500000000, A.D. 2019-Jan-21 00:00:00.0000,  3.084504826805774E+08, -1.472726181868642E+09,  1.327991180309504E+07,  1.018000671507866E+00, -8.063656361072214E+00,  5.952606148843133E+00,  5.019270144323910E+03,  1.504739333932880E+09,  8.153312969913276E+00,
2458505.500000000, A.D. 2019-Jan-22 00:00:00.0000,  3.091951240122477E+08, -1.472613080007990E+09,  1.327991449647939E+07,  5.986925334544973E+00, -1.001541865354590E+01,  6.583225203471129E+00,  5.019410686023447E+03,  1.504781467274435E+09,  1.108957656839895E+01,
2458506.500000000, A.D. 2019-Jan-23 00:00:00.0000,  3.099655650519100E+08, -1.472505109458417E+09,  1.328060456116009E+07,  1.128692022763456E+01, -1.026094271533003E+01,  6.222625298200523E+00,  5.019586975656088E+03,  1.504834317576724E+09,  1.242029583579250E+01,
2458507.500000000, A.D. 2019-Jan-24 00:00:00.0000,  3.107616621682636E+08, -1.472393713545637E+09,  1.327716618244410E+07,  1.620070322407095E+01, -8.812933745062280E+00,  4.945452177714158E+00,  5.019770971587020E+03,  1.504889478169121E+09,  1.201173080081190E+01,
2458508.500000000, A.D. 2019-Jan-25 00:00:00.0000,  3.115798627492005E+08, -1.472270908600796E+09,  1.326542982598752E+07,  2.008743519492226E+01, -5.887635761270172E+00,  2.934612990232691E+00,  5.019934182757641E+03,  1.504938407647134E+09,  9.944569146095295E+00,
2458509.500000000, A.D. 2019-Jan-26 00:00:00.0000,  3.124137145463566E+08, -1.472130222837341E+09,  1.324235873825800E+07,  2.243967634229101E+01, -1.871537750354910E+00,  4.569348296668808E-01,  5.020051068015979E+03,  1.504973448966035E+09,  6.492912434062872E+00,
2458510.500000000, A.D. 2019-Jan-27 00:00:00.0000,  3.132546587365345E+08, -1.471967462573154E+09,  1.320640926788217E+07,  2.292888322587601E+01,  2.715932491179849E+00, -2.162466993873730E+00,  5.020102066558840E+03,  1.504988737944554E+09,  2.097196297117108E+00,
